STARLINK-5712           
1 55615U 23020AY  26026.83484646  .00000261  00000+0  34389-4 0  9997
2 55615  43.0027 219.0585 0001490 275.7051  84.3621 15.02544361162779
STARLINK-5710           
1 55616U 23020AZ  26027.22480541 -.00025132  00000+0 -18464-2 0  9992
2 55616  43.0017 216.8259 0001560 291.5080  68.5596 15.02649616162839
STARLINK-5721           
1 55617U 23020BA  26026.89799235 -.00002253  00000+0 -15171-3 0  9990
2 55617  42.9997 218.6695 0001373 286.9900  73.0791 15.02552307162782
STARLINK-5717           
1 55618U 23020BB  26026.89133814  .00000020  00000+0  16512-4 0  9995
2 55618  43.0020 218.6246 0001095 268.0412  92.0305 15.02543163162786
STARLINK-5720           
1 55619U 23020BC  26026.88801094 -.00000208  00000+0 -31910-6 0  9998
2 55619  43.0020 218.5981 0000885 262.6895  97.3847 15.02528477162783
STARLINK-5718           
1 55620U 23020BD  26025.55512957  .00001614  00000+0  13451-3 0  9997
2 55620  43.0023 225.7967 0001263 263.6868  96.3830 15.02539648162585
STARLINK-5709           
1 55621U 23020BE  26027.22816555  .00000375  00000+0  42807-4 0  9996
2 55621  43.0029 216.8516 0000915 265.0659  95.0078 15.02544992162836
STARLINK-5702           
1 55622U 23020BF  26027.21484309 -.00000022  00000+0  13417-4 0  9999
2 55622  43.0033 216.7536 0001366 267.7228  92.3458 15.02534181162836
STARLINK-5698           
1 55623U 23020BG  26027.21039983 -.00015539  00000+0 -11355-2 0  9991
2 55623  43.0021 216.7176 0000922 265.1961  94.8776 15.02610388162831
STARLINK-5484           
1 55628U 23021A   26027.14858903 -.00001083  00000+0 -82983-4 0  9996
2 55628  70.0007 309.2766 0003494 258.1924 101.8843 14.98322577162075
STARLINK-5497           
1 55629U 23021B   26027.15276326  .00001767  00000+0  15582-3 0  9998
2 55629  70.0010 309.2971 0002458 272.7834  87.3043 14.98345133162072
STARLINK-5303           
1 55630U 23021C   26027.14440598 -.00000724  00000+0 -52922-4 0  9997
2 55630  70.0018 309.2685 0002347 268.5353  91.5537 14.98329449162077
STARLINK-5558           
1 55631U 23021D   26027.11936506  .00002082  00000+0  18221-3 0  9994
2 55631  70.0025 309.1783 0002918 265.2386  94.8440 14.98330301162076
STARLINK-5546           
1 55632U 23021E   26027.13605900  .00000181  00000+0  22966-4 0  9998
2 55632  70.0009 309.2368 0002889 270.1444  89.9384 14.98337389162071
STARLINK-5498           
1 55633U 23021F   26027.13188906  .00000515  00000+0  50968-4 0  9995
2 55633  70.0003 309.2200 0002657 272.4590  87.6265 14.98328334162074
STARLINK-5500           
1 55634U 23021G   26027.13622947  .00000188  00000+0  23563-4 0  9991
2 55634  70.0024 309.2356 0002568 266.8992  93.1873 14.98327885162060
