[{"OBJECT_NAME":"STARLINK-5712","OBJECT_ID":"2023-020AY","EPOCH":"2026-01-26T20:02:10.734144","MEAN_MOTION":15.02544361,"ECCENTRICITY":0.00014906,"INCLINATION":43.0027,"RA_OF_ASC_NODE":219.0585,"ARG_OF_PERICENTER":275.7051,"MEAN_ANOMALY":84.3621,"EPHEMERIS_TYPE":0,"CLASSIFICATION_TYPE":"U","NORAD_CAT_ID":55615,"ELEMENT_SET_NO":999,"REV_AT_EPOCH":16277,"BSTAR":3.4389453e-5,"MEAN_MOTION_DOT":2.61e-6,"MEAN_MOTION_DDOT":0},{"OBJECT_NAME":"STARLINK-5710","OBJECT_ID":"2023-020AZ","EPOCH":"2026-01-27T05:23:43.187424","MEAN_MOTION":15.02649616,"ECCENTRICITY":0.00015606,"INCLINATION":43.0017,"RA_OF_ASC_NODE":216.8259,"ARG_OF_PERICENTER":291.508,"MEAN_ANOMALY":68.5596,"EPHEMERIS_TYPE":0,"CLASSIFICATION_TYPE":"U","NORAD_CAT_ID":55616,"ELEMENT_SET_NO":999,"REV_AT_EPOCH":16283,"BSTAR":-0.0018464103,"MEAN_MOTION_DOT":-0.00025132,"MEAN_MOTION_DDOT":0},{"OBJECT_NAME":"STARLINK-5721","OBJECT_ID":"2023-020BA","EPOCH":"2026-01-26T21:33:06.539040","MEAN_MOTION":15.02552307,"ECCENTRICITY":0.00013731,"INCLINATION":42.9997,"RA_OF_ASC_NODE":218.6695,"ARG_OF_PERICENTER":286.99,"MEAN_ANOMALY":73.0791,"EPHEMERIS_TYPE":0,"CLASSIFICATION_TYPE":"U","NORAD_CAT_ID":55617,"ELEMENT_SET_NO":999,"REV_AT_EPOCH":16278,"BSTAR":-0.00015171032,"MEAN_MOTION_DOT":-2.253e-5,"MEAN_MOTION_DDOT":0},{"OBJECT_NAME":"STARLINK-5717","OBJECT_ID":"2023-020BB","EPOCH":"2026-01-26T21:23:31.615296","MEAN_MOTION":15.02543163,"ECCENTRICITY":0.00010959,"INCLINATION":43.002,"RA_OF_ASC_NODE":218.6246,"ARG_OF_PERICENTER":268.0412,"MEAN_ANOMALY":92.0305,"EPHEMERIS_TYPE":0,"CLASSIFICATION_TYPE":"U","NORAD_CAT_ID":55618,"ELEMENT_SET_NO":999,"REV_AT_EPOCH":16278,"BSTAR":1.6511573e-5,"MEAN_MOTION_DOT":2.0e-7,"MEAN_MOTION_DDOT":0},{"OBJECT_NAME":"STARLINK-5720","OBJECT_ID":"2023-020BC","EPOCH":"2026-01-26T21:18:44.145216","MEAN_MOTION":15.02528477,"ECCENTRICITY":8.855e-5,"INCLINATION":43.002,"RA_OF_ASC_NODE":218.5981,"ARG_OF_PERICENTER":262.6895,"MEAN_ANOMALY":97.3847,"EPHEMERIS_TYPE":0,"CLASSIFICATION_TYPE":"U","NORAD_CAT_ID":55619,"ELEMENT_SET_NO":999,"REV_AT_EPOCH":16278,"BSTAR":-3.19102e-7,"MEAN_MOTION_DOT":-2.08e-6,"MEAN_MOTION_DDOT":0},{"OBJECT_NAME":"STARLINK-5718","OBJECT_ID":"2023-020BD","EPOCH":"2026-01-25T13:19:23.194848","MEAN_MOTION":15.02539648,"ECCENTRICITY":0.0001263,"INCLINATION":43.0023,"RA_OF_ASC_NODE":225.7967,"ARG_OF_PERICENTER":263.6868,"MEAN_ANOMALY":96.383,"EPHEMERIS_TYPE":0,"CLASSIFICATION_TYPE":"U","NORAD_CAT_ID":55620,"ELEMENT_SET_NO":999,"REV_AT_EPOCH":16258,"BSTAR":0.00013451,"MEAN_MOTION_DOT":1.614e-5,"MEAN_MOTION_DDOT":0},{"OBJECT_NAME":"STARLINK-5709","OBJECT_ID":"2023-020BE","EPOCH":"2026-01-27T05:28:33.503520","MEAN_MOTION":15.02544992,"ECCENTRICITY":9.156e-5,"INCLINATION":43.0029,"RA_OF_ASC_NODE":216.8516,"ARG_OF_PERICENTER":265.0659,"MEAN_ANOMALY":95.0078,"EPHEMERIS_TYPE":0,"CLASSIFICATION_TYPE":"U","NORAD_CAT_ID":55621,"ELEMENT_SET_NO":999,"REV_AT_EPOCH":16283,"BSTAR":4.2806606e-5,"MEAN_MOTION_DOT":3.75e-6,"MEAN_MOTION_DDOT":0},{"OBJECT_NAME":"STARLINK-5702","OBJECT_ID":"2023-020BF","EPOCH":"2026-01-27T05:09:22.442976","MEAN_MOTION":15.02534181,"ECCENTRICITY":0.00013669,"INCLINATION":43.0033,"RA_OF_ASC_NODE":216.7536,"ARG_OF_PERICENTER":267.7228,"MEAN_ANOMALY":92.3458,"EPHEMERIS_TYPE":0,"CLASSIFICATION_TYPE":"U","NORAD_CAT_ID":55622,"ELEMENT_SET_NO":999,"REV_AT_EPOCH":16283,"BSTAR":1.3416851e-5,"MEAN_MOTION_DOT":-2.2e-7,"MEAN_MOTION_DDOT":0},{"OBJECT_NAME":"STARLINK-5698","OBJECT_ID":"2023-020BG","EPOCH":"2026-01-27T05:02:58.545312","MEAN_MOTION":15.02610388,"ECCENTRICITY":9.229e-5,"INCLINATION":43.0021,"RA_OF_ASC_NODE":216.7176,"ARG_OF_PERICENTER":265.1961,"MEAN_ANOMALY":94.8776,"EPHEMERIS_TYPE":0,"CLASSIFICATION_TYPE":"U","NORAD_CAT_ID":55623,"ELEMENT_SET_NO":999,"REV_AT_EPOCH":16283,"BSTAR":-0.0011355307,"MEAN_MOTION_DOT":-0.00015539,"MEAN_MOTION_DDOT":0},{"OBJECT_NAME":"STARLINK-5484","OBJECT_ID":"2023-021A","EPOCH":"2026-01-27T03:33:58.092192","MEAN_MOTION":14.98322577,"ECCENTRICITY":0.00034943,"INCLINATION":70.0007,"RA_OF_ASC_NODE":309.2766,"ARG_OF_PERICENTER":258.1924,"MEAN_ANOMALY":101.8843,"EPHEMERIS_TYPE":0,"CLASSIFICATION_TYPE":"U","NORAD_CAT_ID":55628,"ELEMENT_SET_NO":999,"REV_AT_EPOCH":16207,"BSTAR":-8.2982505e-5,"MEAN_MOTION_DOT":-1.083e-5,"MEAN_MOTION_DDOT":0},{"OBJECT_NAME":"STARLINK-5497","OBJECT_ID":"2023-021B","EPOCH":"2026-01-27T03:39:58.745664","MEAN_MOTION":14.98345133,"ECCENTRICITY":0.00024586,"INCLINATION":70.001,"RA_OF_ASC_NODE":309.2971,"ARG_OF_PERICENTER":272.7834,"MEAN_ANOMALY":87.3043,"EPHEMERIS_TYPE":0,"CLASSIFICATION_TYPE":"U","NORAD_CAT_ID":55629,"ELEMENT_SET_NO":999,"REV_AT_EPOCH":16207,"BSTAR":0.00015581875,"MEAN_MOTION_DOT":1.767e-5,"MEAN_MOTION_DDOT":0},{"OBJECT_NAME":"STARLINK-5303","OBJECT_ID":"2023-021C","EPOCH":"2026-01-27T03:27:56.676672","MEAN_MOTION":14.98329449,"ECCENTRICITY":0.00023478,"INCLINATION":70.0018,"RA_OF_ASC_NODE":309.2685,"ARG_OF_PERICENTER":268.5353,"MEAN_ANOMALY":91.5537,"EPHEMERIS_TYPE":0,"CLASSIFICATION_TYPE":"U","NORAD_CAT_ID":55630,"ELEMENT_SET_NO":999,"REV_AT_EPOCH":16207,"BSTAR":-5.2922136e-5,"MEAN_MOTION_DOT":-7.24e-6,"MEAN_MOTION_DDOT":0},{"OBJECT_NAME":"STARLINK-5558","OBJECT_ID":"2023-021D","EPOCH":"2026-01-27T02:51:53.141184","MEAN_MOTION":14.98330301,"ECCENTRICITY":0.00029182,"INCLINATION":70.0025,"RA_OF_ASC_NODE":309.1783,"ARG_OF_PERICENTER":265.2386,"MEAN_ANOMALY":94.844,"EPHEMERIS_TYPE":0,"CLASSIFICATION_TYPE":"U","NORAD_CAT_ID":55631,"ELEMENT_SET_NO":999,"REV_AT_EPOCH":16207,"BSTAR":0.00018221055,"MEAN_MOTION_DOT":2.082e-5,"MEAN_MOTION_DDOT":0},{"OBJECT_NAME":"STARLINK-5546","OBJECT_ID":"2023-021E","EPOCH":"2026-01-27T03:15:55.497600","MEAN_MOTION":14.98337389,"ECCENTRICITY":0.0002889,"INCLINATION":70.0009,"RA_OF_ASC_NODE":309.2368,"ARG_OF_PERICENTER":270.1444,"MEAN_ANOMALY":89.9384,"EPHEMERIS_TYPE":0,"CLASSIFICATION_TYPE":"U","NORAD_CAT_ID":55632,"ELEMENT_SET_NO":999,"REV_AT_EPOCH":16207,"BSTAR":2.2966225e-5,"MEAN_MOTION_DOT":1.81e-6,"MEAN_MOTION_DDOT":0},{"OBJECT_NAME":"STARLINK-5498","OBJECT_ID":"2023-021F","EPOCH":"2026-01-27T03:09:55.214784","MEAN_MOTION":14.98328334,"ECCENTRICITY":0.00026578,"INCLINATION":70.0003,"RA_OF_ASC_NODE":309.22,"ARG_OF_PERICENTER":272.459,"MEAN_ANOMALY":87.6265,"EPHEMERIS_TYPE":0,"CLASSIFICATION_TYPE":"U","NORAD_CAT_ID":55633,"ELEMENT_SET_NO":999,"REV_AT_EPOCH":16207,"BSTAR":5.0967511e-5,"MEAN_MOTION_DOT":5.15e-6,"MEAN_MOTION_DDOT":0},{"OBJECT_NAME":"STARLINK-5500","OBJECT_ID":"2023-021G","EPOCH":"2026-01-27T03:16:10.226208","MEAN_MOTION":14.98327885,"ECCENTRICITY":0.00025682,"INCLINATION":70.0024,"RA_OF_ASC_NODE":309.2356,"ARG_OF_PERICENTER":266.8992,"MEAN_ANOMALY":93.1873,"EPHEMERIS_TYPE":0,"CLASSIFICATION_TYPE":"U","NORAD_CAT_ID":55634,"ELEMENT_SET_NO":999,"REV_AT_EPOCH":16206,"BSTAR":2.3563345e-5,"MEAN_MOTION_DOT":1.88e-6,"MEAN_MOTION_DDOT":0}]
